{
  "type": "FeatureCollection",
  "features": [
    {
      "type": "Feature",
      "properties": {
        "norad_id": 43207,
        "name": "BEIDOU-3 M4 (C22)",
        "group": "beidou",
        "lat": 35.89358727231877,
        "lon": -139.44292639171846,
        "alt_km": 21530.735520424547,
        "timestamp": "2025-12-17T09:00:17.413540+00:00",
        "meta_object_name": "BEIDOU-3 M4 (C22)",
        "meta_object_id": "2018-018A",
        "meta_epoch": "2025-12-13T22:50:30.052608",
        "meta_mean_motion": 1.8623122,
        "meta_eccentricity": 0.00041094,
        "meta_inclination": 56.4872,
        "meta_ra_of_asc_node": 69.2635,
        "meta_arg_of_pericenter": 7.3509,
        "meta_mean_anomaly": 352.6729,
        "meta_ephemeris_type": 0,
        "meta_classification_type": "U",
        "meta_norad_cat_id": 43207,
        "meta_element_set_no": 999,
        "meta_rev_at_epoch": 5329,
        "meta_bstar": 0,
        "meta_mean_motion_dot": -8.1e-07,
        "meta_mean_motion_ddot": 0,
        "tle_line1": "1 43207U 18018A   25347.95173672 -.00000081  00000+0  00000+0 0  9993",
        "tle_line2": "2 43207  56.4872  69.2635 0004109   7.3509 352.6729  1.86231220 53297"
      },
      "geometry": {
        "type": "Point",
        "coordinates": [
          -139.44292639171846,
          35.89358727231877
        ]
      }
    },
    {
      "type": "Feature",
      "properties": {
        "norad_id": 43208,
        "name": "BEIDOU-3 M3 (C21)",
        "group": "beidou",
        "lat": 56.50723514205403,
        "lon": 160.4072918228892,
        "alt_km": 21534.38244260689,
        "timestamp": "2025-12-17T09:00:17.413551+00:00",
        "meta_object_name": "BEIDOU-3 M3 (C21)",
        "meta_object_id": "2018-018B",
        "meta_epoch": "2025-12-14T00:26:16.877760",
        "meta_mean_motion": 1.86231433,
        "meta_eccentricity": 0.00066523,
        "meta_inclination": 56.4868,
        "meta_ra_of_asc_node": 69.2653,
        "meta_arg_of_pericenter": 316.6996,
        "meta_mean_anomaly": 43.266,
        "meta_ephemeris_type": 0,
        "meta_classification_type": "U",
        "meta_norad_cat_id": 43208,
        "meta_element_set_no": 999,
        "meta_rev_at_epoch": 5329,
        "meta_bstar": 0,
        "meta_mean_motion_dot": -8.1e-07,
        "meta_mean_motion_ddot": 0,
        "tle_line1": "1 43208U 18018B   25348.01825090 -.00000081  00000+0  00000+0 0  9990",
        "tle_line2": "2 43208  56.4868  69.2653 0006652 316.6996  43.2660  1.86231433 53297"
      },
      "geometry": {
        "type": "Point",
        "coordinates": [
          160.4072918228892,
          56.50723514205403
        ]
      }
    },
    {
      "type": "Feature",
      "properties": {
        "norad_id": 43245,
        "name": "BEIDOU-3 M9 (C29)",
        "group": "beidou",
        "lat": -41.308174037935764,
        "lon": -92.7636643451244,
        "alt_km": 21529.1961772231,
        "timestamp": "2025-12-17T09:00:17.413562+00:00",
        "meta_object_name": "BEIDOU-3 M9 (C29)",
        "meta_object_id": "2018-029A",
        "meta_epoch": "2025-12-15T07:24:03.092832",
        "meta_mean_motion": 1.86228295,
        "meta_eccentricity": 0.00015379,
        "meta_inclination": 54.363,
        "meta_ra_of_asc_node": 306.3776,
        "meta_arg_of_pericenter": 283.4598,
        "meta_mean_anomaly": 76.5102,
        "meta_ephemeris_type": 0,
        "meta_classification_type": "U",
        "meta_norad_cat_id": 43245,
        "meta_element_set_no": 999,
        "meta_rev_at_epoch": 5247,
        "meta_bstar": 0,
        "meta_mean_motion_dot": -9.9e-07,
        "meta_mean_motion_ddot": 0,
        "tle_line1": "1 43245U 18029A   25349.30836913 -.00000099  00000+0  00000+0 0  9991",
        "tle_line2": "2 43245  54.3630 306.3776 0001537 283.4598  76.5102  1.86228295 52470"
      },
      "geometry": {
        "type": "Point",
        "coordinates": [
          -92.7636643451244,
          -41.308174037935764
        ]
      }
    },
    {
      "type": "Feature",
      "properties": {
        "norad_id": 43246,
        "name": "BEIDOU-3 M10 (C30)",
        "group": "beidou",
        "lat": -8.83881760102381,
        "lon": -60.09151230741211,
        "alt_km": 21518.440301141603,
        "timestamp": "2025-12-17T09:00:17.413573+00:00",
        "meta_object_name": "BEIDOU-3 M10 (C30)",
        "meta_object_id": "2018-029B",
        "meta_epoch": "2025-12-16T07:37:14.387232",
        "meta_mean_motion": 1.86228975,
        "meta_eccentricity": 0.00041174,
        "meta_inclination": 54.3596,
        "meta_ra_of_asc_node": 306.3695,
        "meta_arg_of_pericenter": 1.76,
        "meta_mean_anomaly": 358.228,
        "meta_ephemeris_type": 0,
        "meta_classification_type": "U",
        "meta_norad_cat_id": 43246,
        "meta_element_set_no": 999,
        "meta_rev_at_epoch": 5247,
        "meta_bstar": 0,
        "meta_mean_motion_dot": -9.6e-07,
        "meta_mean_motion_ddot": 0,
        "tle_line1": "1 43246U 18029B   25350.31752763 -.00000096  00000+0  00000+0 0  9992",
        "tle_line2": "2 43246  54.3596 306.3695 0004117   1.7600 358.2280  1.86228975 52476"
      },
      "geometry": {
        "type": "Point",
        "coordinates": [
          -60.09151230741211,
          -8.83881760102381
        ]
      }
    },
    {
      "type": "Feature",
      "properties": {
        "norad_id": 43539,
        "name": "BEIDOU-2 IGSO-7 (C16)",
        "group": "beidou",
        "lat": 11.158424865325282,
        "lon": -23.28507501961447,
        "alt_km": 35646.53489800345,
        "timestamp": "2025-12-17T09:00:17.413584+00:00",
        "meta_object_name": "BEIDOU-2 IGSO-7 (C16)",
        "meta_object_id": "2018-057A",
        "meta_epoch": "2025-12-15T07:47:07.120608",
        "meta_mean_motion": 1.00256546,
        "meta_eccentricity": 0.00926218,
        "meta_inclination": 55.1766,
        "meta_ra_of_asc_node": 164.6485,
        "meta_arg_of_pericenter": 235.2644,
        "meta_mean_anomaly": 271.8458,
        "meta_ephemeris_type": 0,
        "meta_classification_type": "U",
        "meta_norad_cat_id": 43539,
        "meta_element_set_no": 999,
        "meta_rev_at_epoch": 2728,
        "meta_bstar": 0,
        "meta_mean_motion_dot": -2.3e-07,
        "meta_mean_motion_ddot": 0,
        "tle_line1": "1 43539U 18057A   25349.32438797 -.00000023  00000+0  00000+0 0  9995",
        "tle_line2": "2 43539  55.1766 164.6485 0092621 235.2644 271.8458  1.00256546 27289"
      },
      "geometry": {
        "type": "Point",
        "coordinates": [
          -23.28507501961447,
          11.158424865325282
        ]
      }
    },
    {
      "type": "Feature",
      "properties": {
        "norad_id": 43581,
        "name": "BEIDOU-3 M5 (C23)",
        "group": "beidou",
        "lat": -14.898010273837148,
        "lon": 19.612022545768042,
        "alt_km": 21535.753353018186,
        "timestamp": "2025-12-17T09:00:17.413595+00:00",
        "meta_object_name": "BEIDOU-3 M5 (C23)",
        "meta_object_id": "2018-062A",
        "meta_epoch": "2025-12-12T05:55:01.607232",
        "meta_mean_motion": 1.86228672,
        "meta_eccentricity": 0.00021016,
        "meta_inclination": 54.0891,
        "meta_ra_of_asc_node": 188.6597,
        "meta_arg_of_pericenter": 354.1416,
        "meta_mean_anomaly": 5.9159,
        "meta_ephemeris_type": 0,
        "meta_classification_type": "U",
        "meta_norad_cat_id": 43581,
        "meta_element_set_no": 999,
        "meta_rev_at_epoch": 5015,
        "meta_bstar": 0,
        "meta_mean_motion_dot": 7.9e-07,
        "meta_mean_motion_ddot": 0,
        "tle_line1": "1 43581U 18062A   25346.24654638  .00000079  00000+0  00000+0 0  9990",
        "tle_line2": "2 43581  54.0891 188.6597 0002101 354.1416   5.9159  1.86228672 50154"
      },
      "geometry": {
        "type": "Point",
        "coordinates": [
          19.612022545768042,
          -14.898010273837148
        ]
      }
    },
    {
      "type": "Feature",
      "properties": {
        "norad_id": 43582,
        "name": "BEIDOU-3 M6 (C24)",
        "group": "beidou",
        "lat": -49.4059955881187,
        "lon": 130.70227059666894,
        "alt_km": 21543.436327923788,
        "timestamp": "2025-12-17T09:00:17.413607+00:00",
        "meta_object_name": "BEIDOU-3 M6 (C24)",
        "meta_object_id": "2018-062B",
        "meta_epoch": "2025-12-15T20:50:21.636672",
        "meta_mean_motion": 1.86229812,
        "meta_eccentricity": 0.00078211,
        "meta_inclination": 54.0887,
        "meta_ra_of_asc_node": 188.5256,
        "meta_arg_of_pericenter": 46.8936,
        "meta_mean_anomaly": 313.2408,
        "meta_ephemeris_type": 0,
        "meta_classification_type": "U",
        "meta_norad_cat_id": 43582,
        "meta_element_set_no": 999,
        "meta_rev_at_epoch": 5022,
        "meta_bstar": 0,
        "meta_mean_motion_dot": 1.14e-06,
        "meta_mean_motion_ddot": 0,
        "tle_line1": "1 43582U 18062B   25349.86830598  .00000114  00000+0  00000+0 0  9993",
        "tle_line2": "2 43582  54.0887 188.5256 0007821  46.8936 313.2408  1.86229812 50224"
      },
      "geometry": {
        "type": "Point",
        "coordinates": [
          130.70227059666894,
          -49.4059955881187
        ]
      }
    }
  ]
}